ONEWEB-0520             
1 54138U 22138AB  24175.30692344  .00000040  00000+0  67532-4 0  9997
2 54138  87.9151  89.0140 0002547  77.8291 282.3127 13.19726480 81340
ONEWEB-0521             
1 54139U 22138AC  24175.26427572  .00000123  00000+0  27491-3 0  9993
2 54139  87.9149  89.0152 0001872  84.0292 276.1054 13.19726759 81284
ONEWEB-0522             
1 54140U 22138AD  24175.31956203  .00000120  00000+0  26854-3 0  9998
2 54140  87.9150  89.0061 0002116  75.9374 284.1994 13.19727061 81334
ONEWEB-0523             
1 54141U 22138AE  24175.17433042  .00000028  00000+0  36758-4 0  9996
2 54141  87.9211  58.4891 0000948  75.8238 284.3001 13.20773190 83736
ONEWEB-0524             
1 54142U 22138AF  24175.61784021  .00000109  00000+0  23670-3 0  9990
2 54142  87.9209  58.4041 0001737  44.1223 316.0048 13.20772979 83795
ONEWEB-0525             
1 54143U 22138AG  24175.79341310  .00000046  00000+0  82752-4 0  9997
2 54143  87.9152  88.9207 0002383  77.8644 282.2755 13.19727017 82286
ONEWEB-0526             
1 54144U 22138AH  24175.29587101  .00000050  00000+0  92548-4 0  9992
2 54144  87.9150  89.0150 0002113  76.0211 284.1157 13.19726442 81328
ONEWEB-0529             
1 54145U 22138AJ  24175.29901528  .00000076  00000+0  15713-3 0  9992
2 54145  87.9161  89.0294 0002368  77.1057 283.0340 13.19723802 81343
